[
    {
        "Altitude(m)": 704782.8576357473,
        "Argument of Periapsis(deg)": 0.0011390121186627068,
        "Eccentricity": 0.0,
        "Inclination(deg)": 45.0,
        "Latitude(deg)": 33.04847116365968,
        "Longitude(deg)": 85.27445799712183,
        "Mean Anomaly(deg)": 50.244221664748096,
        "RAAN(deg)": 144.9989248058542,
        "Satellite Name": "Constellation 1 641",
        "Satellite Number": 641,
        "Semi-Major Axis(m)": 7083131.272910544,
        "Time(s)": 19
    },
    {
        "Altitude(m)": 704788.8295067276,
        "Argument of Periapsis(deg)": 0.0011989601249081123,
        "Eccentricity": 0.0,
        "Inclination(deg)": 45.0,
        "Latitude(deg)": 33.0813192381492,
        "Longitude(deg)": 85.33126741561234,
        "Mean Anomaly(deg)": 50.30492280499798,
        "RAAN(deg)": 144.9988682166886,
        "Satellite Name": "Constellation 1 641",
        "Satellite Number": 641,
        "Semi-Major Axis(m)": 7083131.272910544,
        "Time(s)": 20
    },
    {
        "Altitude(m)": 704794.8021525404,
        "Argument of Periapsis(deg)": 0.001258908131153518,
        "Eccentricity": 0.0,
        "Inclination(deg)": 45.0,
        "Latitude(deg)": 33.114137363689814,
        "Longitude(deg)": 85.38812208792484,
        "Mean Anomaly(deg)": 50.3656239452479,
        "RAAN(deg)": 144.99881162752305,
        "Satellite Name": "Constellation 1 641",
        "Satellite Number": 641,
        "Semi-Major Axis(m)": 7083131.272910544,
        "Time(s)": 21
    },
    {
        "Altitude(m)": 704800.7755342057,
        "Argument of Periapsis(deg)": 0.0013188561373989236,
        "Eccentricity": 0.0,
        "Inclination(deg)": 45.0,
        "Latitude(deg)": 33.14692548126518,
        "Longitude(deg)": 85.44502189505015,
        "Mean Anomaly(deg)": 50.42632508549778,
        "RAAN(deg)": 144.9987550383575,
        "Satellite Name": "Constellation 1 641",
        "Satellite Number": 641,
        "Semi-Major Axis(m)": 7083131.272910544,
        "Time(s)": 22
    },
    {
        "Altitude(m)": 704806.7496127615,
        "Argument of Periapsis(deg)": 0.0013788041436443293,
        "Eccentricity": 0.0,
        "Inclination(deg)": 45.0,
        "Latitude(deg)": 33.17968353178791,
        "Longitude(deg)": 85.50196722213545,
        "Mean Anomaly(deg)": 50.48702622574769,
        "RAAN(deg)": 144.99869844919192,
        "Satellite Name": "Constellation 1 641",
        "Satellite Number": 641,
        "Semi-Major Axis(m)": 7083131.272910544,
        "Time(s)": 23
    },
    {
        "Altitude(m)": 704812.7243492516,
        "Argument of Periapsis(deg)": 0.001438752149889735,
        "Eccentricity": 0.0,
        "Inclination(deg)": 45.0,
        "Latitude(deg)": 33.212411456099396,
        "Longitude(deg)": 85.55895794990006,
        "Mean Anomaly(deg)": 50.54772736599758,
        "RAAN(deg)": 144.99864186002634,
        "Satellite Name": "Constellation 1 641",
        "Satellite Number": 641,
        "Semi-Major Axis(m)": 7083131.272910544,
        "Time(s)": 24
    },
    {
        "Altitude(m)": 704818.6997047449,
        "Argument of Periapsis(deg)": 0.0014987001561351404,
        "Eccentricity": 0.0,
        "Inclination(deg)": 45.0,
        "Latitude(deg)": 33.24510919496996,
        "Longitude(deg)": 85.61599412702317,
        "Mean Anomaly(deg)": 50.60842850624746,
        "RAAN(deg)": 144.9985852708608,
        "Satellite Name": "Constellation 1 641",
        "Satellite Number": 641,
        "Semi-Major Axis(m)": 7083131.272910544,
        "Time(s)": 25
    },
    {
        "Altitude(m)": 704824.6756403114,
        "Argument of Periapsis(deg)": 0.001558648162380546,
        "Eccentricity": 0.0,
        "Inclination(deg)": 45.0,
        "Latitude(deg)": 33.27777668909902,
        "Longitude(deg)": 85.67307580204562,
        "Mean Anomaly(deg)": 50.669129646497346,
        "RAAN(deg)": 144.9985286816952,
        "Satellite Name": "Constellation 1 641",
        "Satellite Number": 641,
        "Semi-Major Axis(m)": 7083131.272910544,
        "Time(s)": 26
    },
    {
        "Altitude(m)": 704830.6521170452,
        "Argument of Periapsis(deg)": 0.0016185961686259519,
        "Eccentricity": 0.0,
        "Inclination(deg)": 45.0,
        "Latitude(deg)": 33.31041387911514,
        "Longitude(deg)": 85.73020302336904,
        "Mean Anomaly(deg)": 50.72983078674726,
        "RAAN(deg)": 144.99847209252965,
        "Satellite Name": "Constellation 1 641",
        "Satellite Number": 641,
        "Semi-Major Axis(m)": 7083131.272910544,
        "Time(s)": 27
    },
    {
        "Altitude(m)": 704836.629096044,
        "Argument of Periapsis(deg)": 0.0016785441748713573,
        "Eccentricity": 0.0,
        "Inclination(deg)": 45.0,
        "Latitude(deg)": 33.34302070557602,
        "Longitude(deg)": 85.78737583925445,
        "Mean Anomaly(deg)": 50.79053192699717,
        "RAAN(deg)": 144.99841550336404,
        "Satellite Name": "Constellation 1 641",
        "Satellite Number": 641,
        "Semi-Major Axis(m)": 7083131.272910544,
        "Time(s)": 28
    },
    {
        "Altitude(m)": 704842.6065384286,
        "Argument of Periapsis(deg)": 0.001738492181116763,
        "Eccentricity": 0.0,
        "Inclination(deg)": 45.0,
        "Latitude(deg)": 33.375597108968705,
        "Longitude(deg)": 85.84459429782162,
        "Mean Anomaly(deg)": 50.851233067247065,
        "RAAN(deg)": 144.9983589141985,
        "Satellite Name": "Constellation 1 641",
        "Satellite Number": 641,
        "Semi-Major Axis(m)": 7083131.272910544,
        "Time(s)": 29
    },
    {
        "Altitude(m)": 704848.5844053229,
        "Argument of Periapsis(deg)": 0.0017984401873621684,
        "Eccentricity": 0.0,
        "Inclination(deg)": 45.0,
        "Latitude(deg)": 33.40814302970954,
        "Longitude(deg)": 85.90185827895046,
        "Mean Anomaly(deg)": 50.91193420749698,
        "RAAN(deg)": 144.99830232503294,
        "Satellite Name": "Constellation 1 641",
        "Satellite Number": 641,
        "Semi-Major Axis(m)": 7083131.272910544,
        "Time(s)": 30
    },
    {
        "Altitude(m)": 704854.5626578804,
        "Argument of Periapsis(deg)": 0.0018583881936075745,
        "Eccentricity": 0.0,
        "Inclination(deg)": 45.0,
        "Latitude(deg)": 33.4406584081445,
        "Longitude(deg)": 85.95916816666934,
        "Mean Anomaly(deg)": 50.97263534774686,
        "RAAN(deg)": 144.99824573586736,
        "Satellite Name": "Constellation 1 641",
        "Satellite Number": 641,
        "Semi-Major Axis(m)": 7083131.272910544,
        "Time(s)": 31
    },
    {
        "Altitude(m)": 704860.5412572507,
        "Argument of Periapsis(deg)": 0.0019183361998529795,
        "Eccentricity": 0.0,
        "Inclination(deg)": 45.0,
        "Latitude(deg)": 33.47314318454891,
        "Longitude(deg)": 86.01652384057017,
        "Mean Anomaly(deg)": 51.03333648799677,
        "RAAN(deg)": 144.9981891467018,
        "Satellite Name": "Constellation 1 641",
        "Satellite Number": 641,
        "Semi-Major Axis(m)": 7083131.272910544,
        "Time(s)": 32
    },
    {
        "Altitude(m)": 704866.5201646182,
        "Argument of Periapsis(deg)": 0.0019782842060983856,
        "Eccentricity": 0.0,
        "Inclination(deg)": 45.0,
        "Latitude(deg)": 33.505597299127835,
        "Longitude(deg)": 86.07392534819667,
        "Mean Anomaly(deg)": 51.09403762824665,
        "RAAN(deg)": 144.99813255753625,
        "Satellite Name": "Constellation 1 641",
        "Satellite Number": 641,
        "Semi-Major Axis(m)": 7083131.272910544,
        "Time(s)": 33
    },
    {
        "Altitude(m)": 704872.4993411598,
        "Argument of Periapsis(deg)": 0.0020382322123437906,
        "Eccentricity": 0.0,
        "Inclination(deg)": 45.0,
        "Latitude(deg)": 33.53802069201604,
        "Longitude(deg)": 86.13137273694579,
        "Mean Anomaly(deg)": 51.154738768496564,
        "RAAN(deg)": 144.99807596837064,
        "Satellite Name": "Constellation 1 641",
        "Satellite Number": 641,
        "Semi-Major Axis(m)": 7083131.272910544,
        "Time(s)": 34
    },
    {
        "Altitude(m)": 704878.4787480901,
        "Argument of Periapsis(deg)": 0.002098180218589197,
        "Eccentricity": 0.0,
        "Inclination(deg)": 45.0,
        "Latitude(deg)": 33.57041330327816,
        "Longitude(deg)": 86.18886605406684,
        "Mean Anomaly(deg)": 51.21543990874646,
        "RAAN(deg)": 144.9980193792051,
        "Satellite Name": "Constellation 1 641",
        "Satellite Number": 641,
        "Semi-Major Axis(m)": 7083131.272910544,
        "Time(s)": 35
    },
    {
        "Altitude(m)": 704884.458346618,
        "Argument of Periapsis(deg)": 0.002158128224834602,
        "Eccentricity": 0.0,
        "Inclination(deg)": 45.0,
        "Latitude(deg)": 33.602775072908656,
        "Longitude(deg)": 86.24640534666035,
        "Mean Anomaly(deg)": 51.27614104899637,
        "RAAN(deg)": 144.9979627900395,
        "Satellite Name": "Constellation 1 641",
        "Satellite Number": 641,
        "Semi-Major Axis(m)": 7083131.272910544,
        "Time(s)": 36
    },
    {
        "Altitude(m)": 704890.4380979836,
        "Argument of Periapsis(deg)": 0.002218076231080008,
        "Eccentricity": 0.0,
        "Inclination(deg)": 45.0,
        "Latitude(deg)": 33.63510594083209,
        "Longitude(deg)": 86.30399049357989,
        "Mean Anomaly(deg)": 51.33684218924628,
        "RAAN(deg)": 144.99790620087396,
        "Satellite Name": "Constellation 1 641",
        "Satellite Number": 641,
        "Semi-Major Axis(m)": 7083131.272910544,
        "Time(s)": 37
    }
]